[{"OBJECT_NAME":"GHGSAT-C4","OBJECT_ID":"2022-057Q","EPOCH":"2026-03-09T22:58:28.655904","MEAN_MOTION":15.3293316,"ECCENTRICITY":0.0007552,"INCLINATION":97.6357,"RA_OF_ASC_NODE":210.0193,"ARG_OF_PERICENTER":100.0033,"MEAN_ANOMALY":260.2061,"EPHEMERIS_TYPE":0,"CLASSIFICATION_TYPE":"U","NORAD_CAT_ID":52746,"ELEMENT_SET_NO":999,"REV_AT_EPOCH":21033,"BSTAR":0.00030289005,"MEAN_MOTION_DOT":9.562e-5,"MEAN_MOTION_DDOT":0},{"OBJECT_NAME":"STARLINK-30392","OBJECT_ID":"2023-141R","EPOCH":"2026-03-09T19:55:04.124640","MEAN_MOTION":15.30187316,"ECCENTRICITY":9.663e-5,"INCLINATION":53.1598,"RA_OF_ASC_NODE":283.1751,"ARG_OF_PERICENTER":102.9029,"MEAN_ANOMALY":257.208,"EPHEMERIS_TYPE":0,"CLASSIFICATION_TYPE":"U","NORAD_CAT_ID":57855,"ELEMENT_SET_NO":999,"REV_AT_EPOCH":14035,"BSTAR":1.7932475e-5,"MEAN_MOTION_DOT":1.72e-6,"MEAN_MOTION_DDOT":0}]
